{
  "type": "FeatureCollection",
  "features": [
    {
      "type": "Feature",
      "properties": {
        "norad_id": 66954,
        "name": "HULIANWANG DIGUI-115",
        "group": "last-30-days",
        "lat": 67.9893116719122,
        "lon": 152.58066956194307,
        "alt_km": 1013.8254500888888,
        "timestamp": "2025-12-26T04:40:04.513153+00:00",
        "meta_object_name": "HULIANWANG DIGUI-115",
        "meta_object_id": "2025-287B",
        "meta_epoch": "2025-12-24T22:10:56.489088",
        "meta_mean_motion": 13.63539042,
        "meta_eccentricity": 0.0003385,
        "meta_inclination": 86.5036,
        "meta_ra_of_asc_node": 341.7372,
        "meta_arg_of_pericenter": 109.9724,
        "meta_mean_anomaly": 250.1798,
        "meta_ephemeris_type": 0,
        "meta_classification_type": "U",
        "meta_norad_cat_id": 66954,
        "meta_element_set_no": 999,
        "meta_rev_at_epoch": 219,
        "meta_bstar": 8.442119e-06,
        "meta_mean_motion_dot": 2.3e-07,
        "meta_mean_motion_ddot": 0,
        "tle_line1": "1 66954U 25287B   25358.92426492  .00000023  00000+0  84421-5 0  9993",
        "tle_line2": "2 66954  86.5036 341.7372 0003385 109.9724 250.1798 13.63539042  2198"
      },
      "geometry": {
        "type": "Point",
        "coordinates": [
          152.58066956194307,
          67.9893116719122
        ]
      }
    },
    {
      "type": "Feature",
      "properties": {
        "norad_id": 66955,
        "name": "HULIANWANG DIGUI-116",
        "group": "last-30-days",
        "lat": 52.71457030667029,
        "lon": 156.6302442395217,
        "alt_km": 1014.6320092234291,
        "timestamp": "2025-12-26T04:40:04.513163+00:00",
        "meta_object_name": "HULIANWANG DIGUI-116",
        "meta_object_id": "2025-287C",
        "meta_epoch": "2025-12-24T23:52:55.515936",
        "meta_mean_motion": 13.64194122,
        "meta_eccentricity": 0.00016332,
        "meta_inclination": 86.4919,
        "meta_ra_of_asc_node": 341.6856,
        "meta_arg_of_pericenter": 94.3011,
        "meta_mean_anomaly": 265.8333,
        "meta_ephemeris_type": 0,
        "meta_classification_type": "U",
        "meta_norad_cat_id": 66955,
        "meta_element_set_no": 999,
        "meta_rev_at_epoch": 220,
        "meta_bstar": 0.0001652864,
        "meta_mean_motion_dot": 1.48e-06,
        "meta_mean_motion_ddot": 0,
        "tle_line1": "1 66955U 25287C   25358.99508699  .00000148  00000+0  16529-3 0  9991",
        "tle_line2": "2 66955  86.4919 341.6856 0001633  94.3011 265.8333 13.64194122  2201"
      },
      "geometry": {
        "type": "Point",
        "coordinates": [
          156.6302442395217,
          52.71457030667029
        ]
      }
    },
    {
      "type": "Feature",
      "properties": {
        "norad_id": 66956,
        "name": "HULIANWANG DIGUI-117",
        "group": "last-30-days",
        "lat": 37.565193592801634,
        "lon": 158.56441608616765,
        "alt_km": 1015.4833389031764,
        "timestamp": "2025-12-26T04:40:04.513180+00:00",
        "meta_object_name": "HULIANWANG DIGUI-117",
        "meta_object_id": "2025-287D",
        "meta_epoch": "2025-12-24T22:03:29.281824",
        "meta_mean_motion": 13.64670553,
        "meta_eccentricity": 0.00010447,
        "meta_inclination": 86.4976,
        "meta_ra_of_asc_node": 341.7257,
        "meta_arg_of_pericenter": 103.5815,
        "meta_mean_anomaly": 256.5458,
        "meta_ephemeris_type": 0,
        "meta_classification_type": "U",
        "meta_norad_cat_id": 66956,
        "meta_element_set_no": 999,
        "meta_rev_at_epoch": 219,
        "meta_bstar": 9.025962e-06,
        "meta_mean_motion_dot": 2.4e-07,
        "meta_mean_motion_ddot": 0,
        "tle_line1": "1 66956U 25287D   25358.91908891  .00000024  00000+0  90260-5 0  9991",
        "tle_line2": "2 66956  86.4976 341.7257 0001044 103.5815 256.5458 13.64670553  2192"
      },
      "geometry": {
        "type": "Point",
        "coordinates": [
          158.56441608616765,
          37.565193592801634
        ]
      }
    },
    {
      "type": "Feature",
      "properties": {
        "norad_id": 66957,
        "name": "HULIANWANG DIGUI-118",
        "group": "last-30-days",
        "lat": -6.158689919365657,
        "lon": 161.63181134329088,
        "alt_km": 1008.7507044804988,
        "timestamp": "2025-12-26T04:40:04.513191+00:00",
        "meta_object_name": "HULIANWANG DIGUI-118",
        "meta_object_id": "2025-287E",
        "meta_epoch": "2025-12-21T00:50:13.849728",
        "meta_mean_motion": 13.6751011,
        "meta_eccentricity": 0.00054729,
        "meta_inclination": 86.4946,
        "meta_ra_of_asc_node": 343.1304,
        "meta_arg_of_pericenter": 170.9065,
        "meta_mean_anomaly": 189.2194,
        "meta_ephemeris_type": 0,
        "meta_classification_type": "U",
        "meta_norad_cat_id": 66957,
        "meta_element_set_no": 999,
        "meta_rev_at_epoch": 166,
        "meta_bstar": 0.00013223305,
        "meta_mean_motion_dot": 1.28e-06,
        "meta_mean_motion_ddot": 0,
        "tle_line1": "1 66957U 25287E   25355.03488252  .00000128  00000+0  13223-3 0  9993",
        "tle_line2": "2 66957  86.4946 343.1304 0005472 170.9065 189.2194 13.67510110  1668"
      },
      "geometry": {
        "type": "Point",
        "coordinates": [
          161.63181134329088,
          -6.158689919365657
        ]
      }
    },
    {
      "type": "Feature",
      "properties": {
        "norad_id": 66958,
        "name": "CZ-6A R/B",
        "group": "last-30-days",
        "lat": 29.845242452358306,
        "lon": -17.005732101563122,
        "alt_km": 843.2853410445614,
        "timestamp": "2025-12-26T04:40:04.513201+00:00",
        "meta_object_name": "CZ-6A R/B",
        "meta_object_id": "2025-287F",
        "meta_epoch": "2025-12-25T19:55:09.303456",
        "meta_mean_motion": 13.94921619,
        "meta_eccentricity": 0.01070989,
        "meta_inclination": 86.5065,
        "meta_ra_of_asc_node": 341.1242,
        "meta_arg_of_pericenter": 62.8058,
        "meta_mean_anomaly": 298.3983,
        "meta_ephemeris_type": 0,
        "meta_classification_type": "U",
        "meta_norad_cat_id": 66958,
        "meta_element_set_no": 999,
        "meta_rev_at_epoch": 236,
        "meta_bstar": 5.7918422e-05,
        "meta_mean_motion_dot": 1e-06,
        "meta_mean_motion_ddot": 0,
        "tle_line1": "1 66958U 25287F   25359.82996879  .00000100  00000+0  57918-4 0  9994",
        "tle_line2": "2 66958  86.5065 341.1242 0107098  62.8058 298.3983 13.94921619  2365"
      },
      "geometry": {
        "type": "Point",
        "coordinates": [
          -17.005732101563122,
          29.845242452358306
        ]
      }
    },
    {
      "type": "Feature",
      "properties": {
        "norad_id": 66959,
        "name": "STARLINK-35887",
        "group": "last-30-days",
        "lat": -21.57394880282641,
        "lon": -69.63651591947699,
        "alt_km": 385.2160633130743,
        "timestamp": "2025-12-26T04:40:04.513213+00:00",
        "meta_object_name": "STARLINK-35887",
        "meta_object_id": "2025-288A",
        "meta_epoch": "2025-12-25T22:00:01.999584",
        "meta_mean_motion": 15.62696845,
        "meta_eccentricity": 0.00013801,
        "meta_inclination": 43.0003,
        "meta_ra_of_asc_node": 86.9095,
        "meta_arg_of_pericenter": 286.1692,
        "meta_mean_anomaly": 162.2865,
        "meta_ephemeris_type": 0,
        "meta_classification_type": "U",
        "meta_norad_cat_id": 66959,
        "meta_element_set_no": 999,
        "meta_rev_at_epoch": 394,
        "meta_bstar": -0.024926003,
        "meta_mean_motion_dot": -0.02017497,
        "meta_mean_motion_ddot": 0,
        "tle_line1": "1 66959U 25288A   25359.91668981 -.02017497  00000+0 -24926-1 0  9997",
        "tle_line2": "2 66959  43.0003  86.9095 0001380 286.1692 162.2865 15.62696845  3948"
      },
      "geometry": {
        "type": "Point",
        "coordinates": [
          -69.63651591947699,
          -21.57394880282641
        ]
      }
    },
    {
      "type": "Feature",
      "properties": {
        "norad_id": 66960,
        "name": "STARLINK-35879",
        "group": "last-30-days",
        "lat": -22.748288884339196,
        "lon": -68.00750528991139,
        "alt_km": 385.26534273089965,
        "timestamp": "2025-12-26T04:40:04.513223+00:00",
        "meta_object_name": "STARLINK-35879",
        "meta_object_id": "2025-288B",
        "meta_epoch": "2025-12-25T22:00:01.999584",
        "meta_mean_motion": 15.62701518,
        "meta_eccentricity": 0.00014057,
        "meta_inclination": 43.0001,
        "meta_ra_of_asc_node": 86.9045,
        "meta_arg_of_pericenter": 286.1518,
        "meta_mean_anomaly": 164.2179,
        "meta_ephemeris_type": 0,
        "meta_classification_type": "U",
        "meta_norad_cat_id": 66960,
        "meta_element_set_no": 999,
        "meta_rev_at_epoch": 394,
        "meta_bstar": -0.024984658,
        "meta_mean_motion_dot": -0.02021999,
        "meta_mean_motion_ddot": 0,
        "tle_line1": "1 66960U 25288B   25359.91668981 -.02021999  00000+0 -24985-1 0  9996",
        "tle_line2": "2 66960  43.0001  86.9045 0001405 286.1518 164.2179 15.62701518  3942"
      },
      "geometry": {
        "type": "Point",
        "coordinates": [
          -68.00750528991139,
          -22.748288884339196
        ]
      }
    }
  ]
}